OBJECT_NAME,OBJECT_ID,EPOCH,MEAN_MOTION,ECCENTRICITY,INCLINATION,RA_OF_ASC_NODE,ARG_OF_PERICENTER,MEAN_ANOMALY,EPHEMERIS_TYPE,CLASSIFICATION_TYPE,NORAD_CAT_ID,ELEMENT_SET_NO,REV_AT_EPOCH,BSTAR,MEAN_MOTION_DOT,MEAN_MOTION_DDOT
CONNECTA IOT-1,2024-149E,2026-06-18T11:24:07.873632,15.23548678,.00003293,97.3755,245.7448,254.3376,105.7825,0,U,60472,999,10199,.14099255E-3,.3299E-4,0
LOPEN,2024-149F,2026-06-18T04:05:05.518464,15.39711035,.00009363,97.3777,252.5456,180.6697,179.4547,0,U,60473,999,10241,.30187032E-3,.11851E-3,0
ROCK,2024-149G,2026-06-18T11:33:41.186880,15.39713015,.00012252,97.3774,252.8754,187.2028,172.9201,0,U,60474,999,10246,.29862365E-3,.11723E-3,0
CONNECTA IOT-3,2024-149H,2026-06-18T04:02:01.000032,15.23559169,.00014057,97.3733,245.1956,244.8578,115.2514,0,U,60475,999,10195,.14777918E-3,.3462E-4,0
QUBE,2024-149J,2026-06-18T04:59:53.687328,15.47225334,.0002083,97.3781,255.6614,190.0847,170.0362,0,U,60476,999,10262,.3537848E-3,.17925E-3,0
WREN-1,2024-149L,2026-06-18T04:08:59.365248,15.41587501,.00033121,97.3764,253.2956,243.1234,116.9675,0,U,60478,999,10247,.38216436E-3,.15997E-3,0
TOMORROW-S1,2024-149M,2026-06-18T04:20:33.758592,15.32732288,.00016373,97.3750,249.6500,206.8486,153.2672,0,U,60479,999,10224,.18384952E-3,.5733E-4,0
FLOCK 4BE-18,2024-149N,2026-06-18T04:25:10.297344,15.41883524,.00029646,97.3730,252.9241,230.4228,129.6758,0,U,60480,999,10246,.30738579E-3,.12972E-3,0
FLOCK 4BE-7,2024-149P,2026-06-18T04:37:23.952576,15.40350045,.00021692,97.3761,252.2702,230.7359,129.3695,0,U,60481,999,10240,.39989805E-3,.1607E-3,0
TOMORROW-S2,2024-149T,2026-06-18T11:20:30.645888,15.32766235,.00013652,97.3815,250.4309,250.9440,109.1654,0,U,60485,999,10228,.20158504E-3,.63E-4,0
FLOCK 4BE-36,2024-149U,2026-06-18T13:03:41.954112,15.42758964,.00024848,97.3743,253.9888,245.3307,114.7682,0,U,60486,999,10256,.31389869E-3,.13643E-3,0
FLOCK 4BE-25,2024-149V,2026-06-18T04:38:16.856160,15.38856383,.00014403,97.3799,252.3503,213.9142,146.2011,0,U,60487,999,10239,.26737431E-3,.10195E-3,0
FLOCK 4BE-31,2024-149W,2026-06-18T04:26:37.813632,15.44122587,.00014022,97.3800,254.4856,242.2007,117.9099,0,U,60488,999,10253,.34680765E-3,.15795E-3,0
FLOCK 4BE-20,2024-149X,2026-06-18T05:20:04.852896,15.38077028,.00026123,97.3696,251.2562,244.0504,116.0472,0,U,60489,999,10237,.27750894E-3,.1032E-3,0
FLOCK 4BE-23,2024-149Y,2026-06-18T05:06:23.517216,15.37696391,.0002079,97.3781,251.6239,253.0551,107.0466,0,U,60490,999,10235,.2868942E-3,.1054E-3,0
FLOCK 4BE-15,2024-149Z,2026-06-18T11:57:33.246144,15.59903097,.00032226,97.3679,254.9276,235.5079,124.5874,0,U,60491,999,10263,.91757834E-3,.74298E-3,0
FLOCK 4BE-17,2024-149AA,2026-06-18T04:41:34.957536,15.39807317,.00021652,97.3773,252.5727,229.8203,130.2853,0,U,60492,999,10241,.29817867E-3,.11742E-3,0
NUSAT-50 (NANCY ROMAN),2024-149AB,2026-06-18T11:26:15.939168,15.29874206,.00035833,97.3787,250.7236,170.0379,190.0933,0,U,60493,999,10232,.24619996E-3,.7047E-4,0
FLOCK 4BE-22,2024-149AC,2026-06-18T12:01:11.173728,15.41199173,.00024572,97.3731,253.0743,246.4940,113.6049,0,U,60494,999,10250,.30819204E-3,.12713E-3,0
FLOCK 4BE-34,2024-149AD,2026-06-18T04:38:25.347552,15.41181625,.00022486,97.3783,253.5867,261.1859,98.9133,0,U,60495,999,10248,.2889719E-3,.11906E-3,0
TYCHE,2024-149AE,2026-06-18T12:18:12.296448,15.25997490,.0000728,97.3753,247.3117,230.3261,129.7913,0,U,60496,999,10210,.14095002E-3,.3551E-4,0
FLOCK 4BE-32,2024-149AF,2026-06-18T11:39:26.037792,15.42195678,.00024919,97.3719,253.4266,250.7867,109.3111,0,U,60497,999,10253,.35000808E-3,.14941E-3,0
NUSAT-48 (HENRIETTA LEAVITT),2024-149AG,2026-06-18T11:09:52.395264,15.29878772,.00024129,97.3918,250.9575,268.6209,91.4755,0,U,60498,999,10233,.24910855E-3,.7132E-4,0
FLOCK 4BE-30,2024-149AH,2026-06-18T05:18:31.699872,15.56733266,.00046399,97.3775,254.7741,233.3608,126.7221,0,U,60499,999,10193,.14316198E-2,.103389E-2,0
NUSAT-49 (KLARA DAN VON NEUMANN),2024-149AJ,2026-06-18T12:12:22.531968,15.29962679,.00007966,97.3779,250.7870,332.1305,27.9893,0,U,60500,999,10233,.24510882E-3,.7034E-4,0
FLOCK 4BE-11,2024-149AK,2026-06-18T13:04:02.413632,15.43012264,.00026401,97.3698,253.7178,251.0800,109.0161,0,U,60501,999,10256,.2969726E-3,.13013E-3,0
YAM-7,2024-149AN,2026-06-18T11:51:58.187808,15.31833409,.00018906,97.3781,249.7387,298.7579,61.3473,0,U,60504,999,10225,.18961512E-3,.575E-4,0
FLOCK 4BE-24,2024-149AP,2026-06-18T04:57:41.751072,15.43105625,.00027481,97.3717,253.6320,267.5869,92.5064,0,U,60505,999,10252,.36022275E-3,.15858E-3,0
LUR-1,2024-149AQ,2026-06-18T11:40:08.778144,15.30119341,.00027131,97.3738,248.3052,313.0913,47.0100,0,U,60506,999,10217,.1897433E-3,.5454E-4,0
