CONNECTA IOT-1          
1 60472U 24149E   26169.47509113  .00003299  00000+0  14099-3 0  9991
2 60472  97.3755 245.7448 0000329 254.3376 105.7825 15.23548678101992
LOPEN                   
1 60473U 24149F   26169.17020276  .00011851  00000+0  30187-3 0  9996
2 60473  97.3777 252.5456 0000936 180.6697 179.4547 15.39711035102416
ROCK                    
1 60474U 24149G   26169.48172670  .00011723  00000+0  29862-3 0  9993
2 60474  97.3774 252.8754 0001225 187.2028 172.9201 15.39713015102461
CONNECTA IOT-3          
1 60475U 24149H   26169.16806713  .00003462  00000+0  14778-3 0  9992
2 60475  97.3733 245.1956 0001405 244.8578 115.2514 15.23559169101957
QUBE                    
1 60476U 24149J   26169.20826027  .00017925  00000+0  35378-3 0  9996
2 60476  97.3781 255.6614 0002083 190.0847 170.0362 15.47225334102627
WREN-1                  
1 60478U 24149L   26169.17290932  .00015997  00000+0  38216-3 0  9995
2 60478  97.3764 253.2956 0003312 243.1234 116.9675 15.41587501102479
TOMORROW-S1             
1 60479U 24149M   26169.18094628  .00005733  00000+0  18385-3 0  9993
2 60479  97.3750 249.6500 0001637 206.8486 153.2672 15.32732288102242
FLOCK 4BE-18            
1 60480U 24149N   26169.18414696  .00012972  00000+0  30739-3 0  9996
2 60480  97.3730 252.9241 0002964 230.4228 129.6758 15.41883524102468
FLOCK 4BE-7             
1 60481U 24149P   26169.19263834  .00016070  00000+0  39990-3 0  9995
2 60481  97.3761 252.2702 0002169 230.7359 129.3695 15.40350045102400
TOMORROW-S2             
1 60485U 24149T   26169.47257692  .00006300  00000+0  20159-3 0  9997
2 60485  97.3815 250.4309 0001365 250.9440 109.1654 15.32766235102289
FLOCK 4BE-36            
1 60486U 24149U   26169.54423558  .00013643  00000+0  31390-3 0  9999
2 60486  97.3743 253.9888 0002484 245.3307 114.7682 15.42758964102568
FLOCK 4BE-25            
1 60487U 24149V   26169.19325065  .00010195  00000+0  26737-3 0  9993
2 60487  97.3799 252.3503 0001440 213.9142 146.2011 15.38856383102392
FLOCK 4BE-31            
1 60488U 24149W   26169.18515988  .00015795  00000+0  34681-3 0  9996
2 60488  97.3800 254.4856 0001402 242.2007 117.9099 15.44122587102539
FLOCK 4BE-20            
1 60489U 24149X   26169.22227839  .00010320  00000+0  27751-3 0  9996
2 60489  97.3696 251.2562 0002612 244.0504 116.0472 15.38077028102377
FLOCK 4BE-23            
1 60490U 24149Y   26169.21277219  .00010540  00000+0  28689-3 0  9999
2 60490  97.3781 251.6239 0002079 253.0551 107.0466 15.37696391102358
FLOCK 4BE-15            
1 60491U 24149Z   26169.49830146  .00074298  00000+0  91758-3 0  9991
2 60491  97.3679 254.9276 0003222 235.5079 124.5874 15.59903097102639
FLOCK 4BE-17            
1 60492U 24149AA  26169.19554349  .00011742  00000+0  29818-3 0  9990
2 60492  97.3773 252.5727 0002165 229.8203 130.2853 15.39807317102413
NUSAT-50 (NANCY ROMAN)  
1 60493U 24149AB  26169.47657337  .00007047  00000+0  24620-3 0  9992
2 60493  97.3787 250.7236 0003583 170.0379 190.0933 15.29874206102323
FLOCK 4BE-22            
1 60494U 24149AC  26169.50082377  .00012713  00000+0  30819-3 0  9996
2 60494  97.3731 253.0743 0002457 246.4940 113.6049 15.41199173102509
FLOCK 4BE-34            
1 60495U 24149AD  26169.19334893  .00011906  00000+0  28897-3 0  9991
2 60495  97.3783 253.5867 0002248 261.1859  98.9133 15.41181625102489
TYCHE                   
1 60496U 24149AE  26169.51264232  .00003551  00000+0  14095-3 0  9999
2 60496  97.3753 247.3117 0000728 230.3261 129.7913 15.25997490102107
FLOCK 4BE-32            
1 60497U 24149AF  26169.48571803  .00014941  00000+0  35001-3 0  9996
2 60497  97.3719 253.4266 0002491 250.7867 109.3111 15.42195678102538
NUSAT-48 (HENRIETTA LE*)
1 60498U 24149AG  26169.46518976  .00007132  00000+0  24911-3 0  9999
2 60498  97.3918 250.9575 0002412 268.6209  91.4755 15.29878772102337
FLOCK 4BE-30            
1 60499U 24149AH  26169.22120023  .00103389  00000+0  14316-2 0  9994
2 60499  97.3775 254.7741 0004639 233.3608 126.7221 15.56733266101934
NUSAT-49 (KLARA DAN VO*)
1 60500U 24149AJ  26169.50859412  .00007034  00000+0  24511-3 0  9998
2 60500  97.3779 250.7870 0000796 332.1305  27.9893 15.29962679102336
FLOCK 4BE-11            
1 60501U 24149AK  26169.54447238  .00013013  00000+0  29697-3 0  9996
2 60501  97.3698 253.7178 0002640 251.0800 109.0161 15.43012264102567
YAM-7                   
1 60504U 24149AN  26169.49442347  .00005750  00000+0  18962-3 0  9991
2 60504  97.3781 249.7387 0001890 298.7579  61.3473 15.31833409102258
FLOCK 4BE-24            
1 60505U 24149AP  26169.20673323  .00015858  00000+0  36022-3 0  9998
2 60505  97.3717 253.6320 0002748 267.5869  92.5064 15.43105625102525
LUR-1                   
1 60506U 24149AQ  26169.48621271  .00005454  00000+0  18974-3 0  9991
2 60506  97.3738 248.3052 0002713 313.0913  47.0100 15.30119341102174
